{"type": "FeatureCollection", "features": [ {"type": "Feature", "properties": {"norad_id": 30663, "name": "FENGYUN 1C DEB", "group": "fengyun-1c-debris", "lat": 37.73632732479738, "lon": -91.319810982837, "alt_km": 936.6706185782186, "timestamp": "2025-12-26T09:30:53.915979+00:00", "meta": {"OBJECT_NAME": "FENGYUN 1C DEB", "OBJECT_ID": "1999-025APV", "EPOCH": "2025-12-25T00:39:38.521152", "MEAN_MOTION": 13.23209275, "ECCENTRICITY": 0.06494615, "INCLINATION": 99.3034, "RA_OF_ASC_NODE": 274.7377, "ARG_OF_PERICENTER": 106.707, "MEAN_ANOMALY": 260.6328, "EPHEMERIS_TYPE": 0, "CLASSIFICATION_TYPE": "U", "NORAD_CAT_ID": 30663, "ELEMENT_SET_NO": 999, "REV_AT_EPOCH": 89210, "BSTAR": 0.0031370596, "MEAN_MOTION_DOT": 4.09e-05, "MEAN_MOTION_DDOT": 0}, "tle": {"line1": "1 30663U 99025APV 25359.02752918  .00004090  00000+0  31371-2 0  9990", "line2": "2 30663  99.3034 274.7377 0649461 106.7070 260.6328 13.23209275892107"}}, "geometry": {"type": "Point", "coordinates": [-91.319810982837, 37.73632732479738]}}, {"type": "Feature", "properties": {"norad_id": 30665, "name": "FENGYUN 1C DEB", "group": "fengyun-1c-debris", "lat": -48.39842487574136, "lon": -17.102678372571983, "alt_km": 899.0901445194395, "timestamp": "2025-12-26T09:30:53.915989+00:00", "meta": {"OBJECT_NAME": "FENGYUN 1C DEB", "OBJECT_ID": "1999-025APX", "EPOCH": "2025-12-25T22:08:24.039744", "MEAN_MOTION": 14.12410145, "ECCENTRICITY": 0.00677685, "INCLINATION": 99.2095, "RA_OF_ASC_NODE": 331.8821, "ARG_OF_PERICENTER": 164.7677, "MEAN_ANOMALY": 257.053, "EPHEMERIS_TYPE": 0, "CLASSIFICATION_TYPE": "U", "NORAD_CAT_ID": 30665, "ELEMENT_SET_NO": 999, "REV_AT_EPOCH": 96156, "BSTAR": 0.0014411239, "MEAN_MOTION_DOT": 2.67e-05, "MEAN_MOTION_DDOT": 0}, "tle": {"line1": "1 30665U 99025APX 25359.92250046  .00002670  00000+0  14411-2 0  9994", "line2": "2 30665  99.2095 331.8821 0067768 164.7677 257.0530 14.12410145961566"}}, "geometry": {"type": "Point", "coordinates": [-17.102678372571983, -48.39842487574136]}}, {"type": "Feature", "properties": {"norad_id": 30666, "name": "FENGYUN 1C DEB", "group": "fengyun-1c-debris", "lat": -2.4015345664514656, "lon": -16.04312381025584, "alt_km": 902.3438045088906, "timestamp": "2025-12-26T09:30:53.915999+00:00", "meta": {"OBJECT_NAME": "FENGYUN 1C DEB", "OBJECT_ID": "1999-025APY", "EPOCH": "2025-12-25T04:42:58.171104", "MEAN_MOTION": 14.02566879, "ECCENTRICITY": 0.0061407, "INCLINATION": 98.8235, "RA_OF_ASC_NODE": 342.4214, "ARG_OF_PERICENTER": 109.9729, "MEAN_ANOMALY": 312.8835, "EPHEMERIS_TYPE": 0, "CLASSIFICATION_TYPE": "U", "NORAD_CAT_ID": 30666, "ELEMENT_SET_NO": 999, "REV_AT_EPOCH": 96285, "BSTAR": 0.0004444, "MEAN_MOTION_DOT": 6.54e-06, "MEAN_MOTION_DDOT": 0}, "tle": {"line1": "1 30666U 99025APY 25359.19650661  .00000654  00000+0  44440-3 0  9997", "line2": "2 30666  98.8235 342.4214 0061407 109.9729 312.8835 14.02566879962851"}}, "geometry": {"type": "Point", "coordinates": [-16.04312381025584, -2.4015345664514656]}}, {"type": "Feature", "properties": {"norad_id": 30668, "name": "FENGYUN 1C DEB", "group": "fengyun-1c-debris", "lat": 40.70708307535965, "lon": 65.75687158281474, "alt_km": 904.1478926329291, "timestamp": "2025-12-26T09:30:53.916009+00:00", "meta": {"OBJECT_NAME": "FENGYUN 1C DEB", "OBJECT_ID": "1999-025AQA", "EPOCH": "2025-12-24T18:49:33.972672", "MEAN_MOTION": 14.12401131, "ECCENTRICITY": 0.00799696, "INCLINATION": 99.1313, "RA_OF_ASC_NODE": 72.0687, "ARG_OF_PERICENTER": 212.8893, "MEAN_ANOMALY": 276.6111, "EPHEMERIS_TYPE": 0, "CLASSIFICATION_TYPE": "U", "NORAD_CAT_ID": 30668, "ELEMENT_SET_NO": 999, "REV_AT_EPOCH": 96225, "BSTAR": 0.0016829893, "MEAN_MOTION_DOT": 3.153e-05, "MEAN_MOTION_DDOT": 0}, "tle": {"line1": "1 30668U 99025AQA 25358.78442098  .00003153  00000+0  16830-2 0  9994", "line2": "2 30668  99.1313  72.0687 0079969 212.8893 276.6111 14.12401131962250"}}, "geometry": {"type": "Point", "coordinates": [65.75687158281474, 40.70708307535965]}}, {"type": "Feature", "properties": {"norad_id": 30669, "name": "FENGYUN 1C DEB", "group": "fengyun-1c-debris", "lat": -15.741169481976105, "lon": -61.179003182151945, "alt_km": 965.7896048017947, "timestamp": "2025-12-26T09:30:53.916019+00:00", "meta": {"OBJECT_NAME": "FENGYUN 1C DEB", "OBJECT_ID": "1999-025AQB", "EPOCH": "2025-12-25T08:30:55.303200", "MEAN_MOTION": 14.02775158, "ECCENTRICITY": 0.0118356, "INCLINATION": 98.6364, "RA_OF_ASC_NODE": 295.3776, "ARG_OF_PERICENTER": 140.8637, "MEAN_ANOMALY": 346.5174, "EPHEMERIS_TYPE": 0, "CLASSIFICATION_TYPE": "U", "NORAD_CAT_ID": 30669, "ELEMENT_SET_NO": 999, "REV_AT_EPOCH": 95630, "BSTAR": 0.0013925, "MEAN_MOTION_DOT": 2.25e-05, "MEAN_MOTION_DDOT": 0}, "tle": {"line1": "1 30669U 99025AQB 25359.35480675  .00002250  00000+0  13925-2 0  9991", "line2": "2 30669  98.6364 295.3776 0118356 140.8637 346.5174 14.02775158956307"}}, "geometry": {"type": "Point", "coordinates": [-61.179003182151945, -15.741169481976105]}}, {"type": "Feature", "properties": {"norad_id": 30670, "name": "FENGYUN 1C DEB", "group": "fengyun-1c-debris", "lat": -10.345887674198014, "lon": -137.08634865363854, "alt_km": 870.2605497234672, "timestamp": "2025-12-26T09:30:53.916030+00:00", "meta": {"OBJECT_NAME": "FENGYUN 1C DEB", "OBJECT_ID": "1999-025AQC", "EPOCH": "2025-12-25T09:26:56.436864", "MEAN_MOTION": 14.15822376, "ECCENTRICITY": 0.003944, "INCLINATION": 98.709, "RA_OF_ASC_NODE": 43.5372, "ARG_OF_PERICENTER": 34.077, "MEAN_ANOMALY": 88.0103, "EPHEMERIS_TYPE": 0, "CLASSIFICATION_TYPE": "U", "NORAD_CAT_ID": 30670, "ELEMENT_SET_NO": 999, "REV_AT_EPOCH": 97331, "BSTAR": 9.9648e-05, "MEAN_MOTION_DOT": 1.54e-06, "MEAN_MOTION_DDOT": 0}, "tle": {"line1": "1 30670U 99025AQC 25359.39370876  .00000154  00000+0  99648-4 0  9997", "line2": "2 30670  98.7090  43.5372 0039440  34.0770  88.0103 14.15822376973318"}}, "geometry": {"type": "Point", "coordinates": [-137.08634865363854, -10.345887674198014]}}, {"type": "Feature", "properties": {"norad_id": 30671, "name": "FENGYUN 1C DEB", "group": "fengyun-1c-debris", "lat": -53.572897276249044, "lon": -127.60130137212118, "alt_km": 963.0114971452176, "timestamp": "2025-12-26T09:30:53.916039+00:00", "meta": {"OBJECT_NAME": "FENGYUN 1C DEB", "OBJECT_ID": "1999-025AQD", "EPOCH": "2025-12-25T20:39:01.951200", "MEAN_MOTION": 13.95504819, "ECCENTRICITY": 0.01256768, "INCLINATION": 99.2516, "RA_OF_ASC_NODE": 64.6201, "ARG_OF_PERICENTER": 357.2516, "MEAN_ANOMALY": 67.1231, "EPHEMERIS_TYPE": 0, "CLASSIFICATION_TYPE": "U", "NORAD_CAT_ID": 30671, "ELEMENT_SET_NO": 999, "REV_AT_EPOCH": 95378, "BSTAR": 0.0011635555, "MEAN_MOTION_DOT": 1.643e-05, "MEAN_MOTION_DDOT": 0}, "tle": {"line1": "1 30671U 99025AQD 25359.86043925  .00001643  00000+0  11636-2 0  9995", "line2": "2 30671  99.2516  64.6201 0125676 357.2516  67.1231 13.95504819953783"}}, "geometry": {"type": "Point", "coordinates": [-127.60130137212118, -53.572897276249044]}}, {"type": "Feature", "properties": {"norad_id": 30673, "name": "FENGYUN 1C DEB", "group": "fengyun-1c-debris", "lat": 79.95516293489122, "lon": -13.131438498492235, "alt_km": 838.3667457823776, "timestamp": "2025-12-26T09:30:53.916049+00:00", "meta": {"OBJECT_NAME": "FENGYUN 1C DEB", "OBJECT_ID": "1999-025AQF", "EPOCH": "2025-12-25T23:24:51.179904", "MEAN_MOTION": 14.03458013, "ECCENTRICITY": 0.00527839, "INCLINATION": 98.9176, "RA_OF_ASC_NODE": 48.8785, "ARG_OF_PERICENTER": 106.4589, "MEAN_ANOMALY": 13.8967, "EPHEMERIS_TYPE": 0, "CLASSIFICATION_TYPE": "U", "NORAD_CAT_ID": 30673, "ELEMENT_SET_NO": 999, "REV_AT_EPOCH": 96717, "BSTAR": 6.2297815e-05, "MEAN_MOTION_DOT": 5.6e-07, "MEAN_MOTION_DDOT": 0}, "tle": {"line1": "1 30673U 99025AQF 25359.97559236  .00000056  00000+0  62298-4 0  9995", "line2": "2 30673  98.9176  48.8785 0052783 106.4589  13.8967 14.03458013967172"}}, "geometry": {"type": "Point", "coordinates": [-13.131438498492235, 79.95516293489122]}}, {"type": "Feature", "properties": {"norad_id": 30674, "name": "FENGYUN 1C DEB", "group": "fengyun-1c-debris", "lat": -48.89025325577801, "lon": 175.53268845686466, "alt_km": 568.3618531274178, "timestamp": "2025-12-26T09:30:53.916059+00:00", "meta": {"OBJECT_NAME": "FENGYUN 1C DEB", "OBJECT_ID": "1999-025AQG", "EPOCH": "2025-12-25T22:30:46.598112", "MEAN_MOTION": 14.9775993, "ECCENTRICITY": 0.00244576, "INCLINATION": 98.9374, "RA_OF_ASC_NODE": 164.6192, "ARG_OF_PERICENTER": 266.9826, "MEAN_ANOMALY": 92.8594, "EPHEMERIS_TYPE": 0, "CLASSIFICATION_TYPE": "U", "NORAD_CAT_ID": 30674, "ELEMENT_SET_NO": 999, "REV_AT_EPOCH": 97549, "BSTAR": 0.0073340778, "MEAN_MOTION_DOT": 0.00087546, "MEAN_MOTION_DDOT": 0}, "tle": {"line1": "1 30674U 99025AQG 25359.93803933  .00087546  00000+0  73341-2 0  9996", "line2": "2 30674  98.9374 164.6192 0024457 266.9826  92.8594 14.97759930975497"}}, "geometry": {"type": "Point", "coordinates": [175.53268845686466, -48.89025325577801]}}, {"type": "Feature", "properties": {"norad_id": 30675, "name": "FENGYUN 1C DEB", "group": "fengyun-1c-debris", "lat": -39.18364496368156, "lon": -107.67254777287096, "alt_km": 805.7610296540779, "timestamp": "2025-12-26T09:30:53.916070+00:00", "meta": {"OBJECT_NAME": "FENGYUN 1C DEB", "OBJECT_ID": "1999-025AQH", "EPOCH": "2025-12-25T04:02:33.864000", "MEAN_MOTION": 14.27496596, "ECCENTRICITY": 0.0053561, "INCLINATION": 98.7537, "RA_OF_ASC_NODE": 78.3128, "ARG_OF_PERICENTER": 134.0177, "MEAN_ANOMALY": 257.8355, "EPHEMERIS_TYPE": 0, "CLASSIFICATION_TYPE": "U", "NORAD_CAT_ID": 30675, "ELEMENT_SET_NO": 999, "REV_AT_EPOCH": 97069, "BSTAR": 0.0016434, "MEAN_MOTION_DOT": 4.057e-05, "MEAN_MOTION_DDOT": 0}, "tle": {"line1": "1 30675U 99025AQH 25359.16844750  .00004057  00000+0  16434-2 0  9990", "line2": "2 30675  98.7537  78.3128 0053561 134.0177 257.8355 14.27496596970693"}}, "geometry": {"type": "Point", "coordinates": [-107.67254777287096, -39.18364496368156]}}]}